CCSDS_OMM_VERS = 2.0
CREATION_DATE  = 
ORIGINATOR     = 

OBJECT_NAME    = STARLINK-35371
OBJECT_ID      = 2025-262AE
CENTER_NAME    = EARTH
REF_FRAME      = TEME
TIME_SYSTEM    = UTC
MEAN_ELEMENT_THEORY = SGP/SGP4

EPOCH          = 2025-12-02T06:00:02.999808
MEAN_MOTION    = 15.65434719
ECCENTRICITY   = .00017972
INCLINATION    = 42.9995
RA_OF_ASC_NODE = 132.5488
ARG_OF_PERICENTER = 269.9995
MEAN_ANOMALY   = 101.5996

EPHEMERIS_TYPE = 0
CLASSIFICATION_TYPE = U
NORAD_CAT_ID   = 66484
ELEMENT_SET_NO = 999
REV_AT_EPOCH   = 395
BSTAR          = -.23380982E-1
MEAN_MOTION_DOT = -.2100036E-1
MEAN_MOTION_DDOT = 0

CCSDS_OMM_VERS = 2.0
CREATION_DATE  = 
ORIGINATOR     = 

OBJECT_NAME    = STARLINK-34774
OBJECT_ID      = 2025-263A
CENTER_NAME    = EARTH
REF_FRAME      = TEME
TIME_SYSTEM    = UTC
MEAN_ELEMENT_THEORY = SGP/SGP4

EPOCH          = 2025-12-02T06:00:02.999808
MEAN_MOTION    = 15.75145374
ECCENTRICITY   = .00020375
INCLINATION    = 42.9989
RA_OF_ASC_NODE = 187.2149
ARG_OF_PERICENTER = 274.6174
MEAN_ANOMALY   = 138.8414

EPHEMERIS_TYPE = 0
CLASSIFICATION_TYPE = U
NORAD_CAT_ID   = 66485
ELEMENT_SET_NO = 999
REV_AT_EPOCH   = 394
BSTAR          = -.1785592E-2
MEAN_MOTION_DOT = -.267524E-2
MEAN_MOTION_DDOT = 0

CCSDS_OMM_VERS = 2.0
CREATION_DATE  = 
ORIGINATOR     = 

OBJECT_NAME    = STARLINK-34844
OBJECT_ID      = 2025-263B
CENTER_NAME    = EARTH
REF_FRAME      = TEME
TIME_SYSTEM    = UTC
MEAN_ELEMENT_THEORY = SGP/SGP4

EPOCH          = 2025-12-02T06:00:02.999808
MEAN_MOTION    = 15.75105156
ECCENTRICITY   = .00018403
INCLINATION    = 42.9989
RA_OF_ASC_NODE = 187.2095
ARG_OF_PERICENTER = 265.2841
MEAN_ANOMALY   = 150.1114

EPHEMERIS_TYPE = 0
CLASSIFICATION_TYPE = U
NORAD_CAT_ID   = 66486
ELEMENT_SET_NO = 999
REV_AT_EPOCH   = 390
BSTAR          = -.13433589E-2
MEAN_MOTION_DOT = -.202554E-2
MEAN_MOTION_DDOT = 0

CCSDS_OMM_VERS = 2.0
CREATION_DATE  = 
ORIGINATOR     = 

OBJECT_NAME    = STARLINK-34733
OBJECT_ID      = 2025-263C
CENTER_NAME    = EARTH
REF_FRAME      = TEME
TIME_SYSTEM    = UTC
MEAN_ELEMENT_THEORY = SGP/SGP4

EPOCH          = 2025-12-02T06:00:02.999808
MEAN_MOTION    = 15.75133516
ECCENTRICITY   = .00016485
INCLINATION    = 42.9990
RA_OF_ASC_NODE = 187.2050
ARG_OF_PERICENTER = 278.9818
MEAN_ANOMALY   = 138.3175

EPHEMERIS_TYPE = 0
CLASSIFICATION_TYPE = U
NORAD_CAT_ID   = 66487
ELEMENT_SET_NO = 999
REV_AT_EPOCH   = 395
BSTAR          = -.17139564E-2
MEAN_MOTION_DOT = -.256972E-2
MEAN_MOTION_DDOT = 0

CCSDS_OMM_VERS = 2.0
CREATION_DATE  = 
ORIGINATOR     = 

OBJECT_NAME    = STARLINK-35515
OBJECT_ID      = 2025-263D
CENTER_NAME    = EARTH
REF_FRAME      = TEME
TIME_SYSTEM    = UTC
MEAN_ELEMENT_THEORY = SGP/SGP4

EPOCH          = 2025-12-02T06:00:02.999808
MEAN_MOTION    = 15.75133515
ECCENTRICITY   = .00016323
INCLINATION    = 42.9991
RA_OF_ASC_NODE = 187.2003
ARG_OF_PERICENTER = 278.9895
MEAN_ANOMALY   = 140.2280

EPHEMERIS_TYPE = 0
CLASSIFICATION_TYPE = U
NORAD_CAT_ID   = 66488
ELEMENT_SET_NO = 999
REV_AT_EPOCH   = 395
BSTAR          = -.17403075E-2
MEAN_MOTION_DOT = -.260798E-2
MEAN_MOTION_DDOT = 0

CCSDS_OMM_VERS = 2.0
CREATION_DATE  = 
ORIGINATOR     = 

OBJECT_NAME    = STARLINK-35696
OBJECT_ID      = 2025-263E
CENTER_NAME    = EARTH
REF_FRAME      = TEME
TIME_SYSTEM    = UTC
MEAN_ELEMENT_THEORY = SGP/SGP4

EPOCH          = 2025-12-02T06:00:02.999808
MEAN_MOTION    = 15.75124079
ECCENTRICITY   = .00017279
INCLINATION    = 42.9990
RA_OF_ASC_NODE = 187.1949
ARG_OF_PERICENTER = 260.5390
MEAN_ANOMALY   = 160.5955

EPHEMERIS_TYPE = 0
CLASSIFICATION_TYPE = U
NORAD_CAT_ID   = 66489
ELEMENT_SET_NO = 999
REV_AT_EPOCH   = 395
BSTAR          = -.15067463E-2
MEAN_MOTION_DOT = -.226674E-2
MEAN_MOTION_DDOT = 0

CCSDS_OMM_VERS = 2.0
CREATION_DATE  = 
ORIGINATOR     = 

OBJECT_NAME    = STARLINK-35693
OBJECT_ID      = 2025-263F
CENTER_NAME    = EARTH
REF_FRAME      = TEME
TIME_SYSTEM    = UTC
MEAN_ELEMENT_THEORY = SGP/SGP4

EPOCH          = 2025-12-02T06:00:02.999808
MEAN_MOTION    = 15.75139521
ECCENTRICITY   = .00016304
INCLINATION    = 42.9992
RA_OF_ASC_NODE = 187.1902
ARG_OF_PERICENTER = 278.9335
MEAN_ANOMALY   = 144.1129

EPHEMERIS_TYPE = 0
CLASSIFICATION_TYPE = U
NORAD_CAT_ID   = 66490
ELEMENT_SET_NO = 999
REV_AT_EPOCH   = 395
BSTAR          = -.17862665E-2
MEAN_MOTION_DOT = -.267532E-2
MEAN_MOTION_DDOT = 0

CCSDS_OMM_VERS = 2.0
CREATION_DATE  = 
ORIGINATOR     = 

OBJECT_NAME    = STARLINK-35663
OBJECT_ID      = 2025-263G
CENTER_NAME    = EARTH
REF_FRAME      = TEME
TIME_SYSTEM    = UTC
MEAN_ELEMENT_THEORY = SGP/SGP4

EPOCH          = 2025-12-02T06:00:02.999808
MEAN_MOTION    = 15.75128288
ECCENTRICITY   = .00020095
INCLINATION    = 42.9991
RA_OF_ASC_NODE = 187.1805
ARG_OF_PERICENTER = 272.7874
MEAN_ANOMALY   = 154.0867

EPHEMERIS_TYPE = 0
CLASSIFICATION_TYPE = U
NORAD_CAT_ID   = 66491
ELEMENT_SET_NO = 999
REV_AT_EPOCH   = 395
BSTAR          = -.14332969E-2
MEAN_MOTION_DOT = -.21597E-2
MEAN_MOTION_DDOT = 0

CCSDS_OMM_VERS = 2.0
CREATION_DATE  = 
ORIGINATOR     = 

OBJECT_NAME    = STARLINK-35673
OBJECT_ID      = 2025-263H
CENTER_NAME    = EARTH
REF_FRAME      = TEME
TIME_SYSTEM    = UTC
MEAN_ELEMENT_THEORY = SGP/SGP4

EPOCH          = 2025-12-02T06:00:02.999808
MEAN_MOTION    = 15.75142667
ECCENTRICITY   = .00017721
INCLINATION    = 42.9988
RA_OF_ASC_NODE = 187.1755
ARG_OF_PERICENTER = 273.4346
MEAN_ANOMALY   = 155.3618

EPHEMERIS_TYPE = 0
CLASSIFICATION_TYPE = U
NORAD_CAT_ID   = 66492
ELEMENT_SET_NO = 999
REV_AT_EPOCH   = 395
BSTAR          = -.1785186E-2
MEAN_MOTION_DOT = -.267419E-2
MEAN_MOTION_DDOT = 0

CCSDS_OMM_VERS = 2.0
CREATION_DATE  = 
ORIGINATOR     = 

OBJECT_NAME    = STARLINK-35597
OBJECT_ID      = 2025-263J
CENTER_NAME    = EARTH
REF_FRAME      = TEME
TIME_SYSTEM    = UTC
MEAN_ELEMENT_THEORY = SGP/SGP4

EPOCH          = 2025-12-02T06:00:02.999808
MEAN_MOTION    = 15.75075080
ECCENTRICITY   = .00018772
INCLINATION    = 42.9991
RA_OF_ASC_NODE = 187.1704
ARG_OF_PERICENTER = 283.1201
MEAN_ANOMALY   = 147.6424

EPHEMERIS_TYPE = 0
CLASSIFICATION_TYPE = U
NORAD_CAT_ID   = 66493
ELEMENT_SET_NO = 999
REV_AT_EPOCH   = 395
BSTAR          = -.11760166E-2
MEAN_MOTION_DOT = -.177666E-2
MEAN_MOTION_DDOT = 0

CCSDS_OMM_VERS = 2.0
CREATION_DATE  = 
ORIGINATOR     = 

OBJECT_NAME    = STARLINK-35689
OBJECT_ID      = 2025-263K
CENTER_NAME    = EARTH
REF_FRAME      = TEME
TIME_SYSTEM    = UTC
MEAN_ELEMENT_THEORY = SGP/SGP4

EPOCH          = 2025-12-02T06:00:02.999808
MEAN_MOTION    = 15.75137098
ECCENTRICITY   = .00017784
INCLINATION    = 42.9991
RA_OF_ASC_NODE = 187.1855
ARG_OF_PERICENTER = 268.1459
MEAN_ANOMALY   = 156.8173

EPHEMERIS_TYPE = 0
CLASSIFICATION_TYPE = U
NORAD_CAT_ID   = 66494
ELEMENT_SET_NO = 999
REV_AT_EPOCH   = 395
BSTAR          = -.17135418E-2
MEAN_MOTION_DOT = -.256957E-2
MEAN_MOTION_DDOT = 0

CCSDS_OMM_VERS = 2.0
CREATION_DATE  = 
ORIGINATOR     = 

OBJECT_NAME    = STARLINK-35832
OBJECT_ID      = 2025-263L
CENTER_NAME    = EARTH
REF_FRAME      = TEME
TIME_SYSTEM    = UTC
MEAN_ELEMENT_THEORY = SGP/SGP4

EPOCH          = 2025-12-02T06:00:02.999808
MEAN_MOTION    = 15.75144308
ECCENTRICITY   = .00015707
INCLINATION    = 42.9988
RA_OF_ASC_NODE = 187.1658
ARG_OF_PERICENTER = 258.8694
MEAN_ANOMALY   = 173.7563

EPHEMERIS_TYPE = 0
CLASSIFICATION_TYPE = U
NORAD_CAT_ID   = 66495
ELEMENT_SET_NO = 999
REV_AT_EPOCH   = 395
BSTAR          = -.18075747E-2
MEAN_MOTION_DOT = -.270672E-2
MEAN_MOTION_DDOT = 0

