STARLINK-35371          
1 66484U 25262AE  25336.25003472 -.02100036  00000+0 -23381-1 0  9998
2 66484  42.9995 132.5488 0001797 269.9995 101.5996 15.65434719  3955
STARLINK-34774          
1 66485U 25263A   25336.25003472 -.00267524  00000+0 -17856-2 0  9995
2 66485  42.9989 187.2149 0002037 274.6174 138.8414 15.75145374  3944
STARLINK-34844          
1 66486U 25263B   25336.25003472 -.00202554  00000+0 -13434-2 0  9996
2 66486  42.9989 187.2095 0001840 265.2841 150.1114 15.75105156  3907
STARLINK-34733          
1 66487U 25263C   25336.25003472 -.00256972  00000+0 -17140-2 0  9998
2 66487  42.9990 187.2050 0001648 278.9818 138.3175 15.75133516  3953
STARLINK-35515          
1 66488U 25263D   25336.25003472 -.00260798  00000+0 -17403-2 0  9992
2 66488  42.9991 187.2003 0001632 278.9895 140.2280 15.75133515  3959
STARLINK-35696          
1 66489U 25263E   25336.25003472 -.00226674  00000+0 -15067-2 0  9992
2 66489  42.9990 187.1949 0001727 260.5390 160.5955 15.75124079  3958
STARLINK-35693          
1 66490U 25263F   25336.25003472 -.00267532  00000+0 -17863-2 0  9998
2 66490  42.9992 187.1902 0001630 278.9335 144.1129 15.75139521  3955
STARLINK-35663          
1 66491U 25263G   25336.25003472 -.00215970  00000+0 -14333-2 0  9997
2 66491  42.9991 187.1805 0002009 272.7874 154.0867 15.75128288  3955
STARLINK-35673          
1 66492U 25263H   25336.25003472 -.00267419  00000+0 -17852-2 0  9992
2 66492  42.9988 187.1755 0001772 273.4346 155.3618 15.75142667  3959
STARLINK-35597          
1 66493U 25263J   25336.25003472 -.00177666  00000+0 -11760-2 0  9999
2 66493  42.9991 187.1704 0001877 283.1201 147.6424 15.75075080  3955
STARLINK-35689          
1 66494U 25263K   25336.25003472 -.00256957  00000+0 -17135-2 0  9993
2 66494  42.9991 187.1855 0001778 268.1459 156.8173 15.75137098  3952
STARLINK-35832          
1 66495U 25263L   25336.25003472 -.00270672  00000+0 -18076-2 0  9999
2 66495  42.9988 187.1658 0001570 258.8694 173.7563 15.75144308  3950
